[
    {
        "id": 1,
        "budderflyId": "SUBW15106",
        "address": "6401 SECURITY BOULEVARD",
        "city": "BALTIMORE",
        "state": "MD",
        "zipCode": 21235,
        "autoPayEnabled": false
    },
    {
        "id": 2,
        "budderflyId": "SUBW6816",
        "address": "6401 SECURITY BOULEVARD",
        "city": "BALTIMORE",
        "state": "MD",
        "zipCode": 21235,
        "autoPayEnabled": false
    },
    {
        "id": 3,
        "budderflyId": "SUBW14183",
        "address": "6401 SECURITY BOULEVARD",
        "city": "BALTIMORE",
        "state": "MD",
        "zipCode": 21235,
        "autoPayEnabled": false
    },
    {
        "id": 4,
        "budderflyId": "SUBW10265",
        "address": "6401 SECURITY BOULEVARD",
        "city": "BALTIMORE",
        "state": "MD",
        "zipCode": 21235,
        "autoPayEnabled": true
    },
    {
        "id": 5,
        "budderflyId": "SUBW277777",
        "address": "6401 SECURITY BOULEVARD",
        "city": "BALTIMORE",
        "state": "MD",
        "zipCode": 21235,
        "autoPayEnabled": false
    },
    {
        "id": 6,
        "budderflyId": "KFC-40006",
        "address": "6401 SECURITY BOULEVARD",
        "city": "BALTIMORE",
        "state": "MD",
        "zipCode": 21235,
        "autoPayEnabled": true
    },
    {
        "id": 7,
        "budderflyId": "KFC-40007",
        "address": "6401 SECURITY BOULEVARD",
        "city": "BALTIMORE",
        "state": "MD",
        "zipCode": 21235,
        "autoPayEnabled": false
    },
    {
        "id": 8,
        "budderflyId": "KFC-40008",
        "address": "6401 SECURITY BOULEVARD",
        "city": "BALTIMORE",
        "state": "MD",
        "zipCode": 21235,
        "autoPayEnabled": true
    },
    {
        "id": 8,
        "budderflyId": "KFC-40009",
        "address": "6401 SECURITY BOULEVARD",
        "city": "BALTIMORE",
        "state": "MD",
        "zipCode": 21235,
        "autoPayEnabled": true
    },
    {
        "id": 9,
        "budderflyId": "KFC-40010",
        "address": "6401 SECURITY BOULEVARD",
        "city": "BALTIMORE",
        "state": "MD",
        "zipCode": 21235,
        "autoPayEnabled": false
    },
    {
        "id": 10,
        "budderflyId": "KFC-40011",
        "address": "6401 SECURITY BOULEVARD",
        "city": "BALTIMORE",
        "state": "MD",
        "zipCode": 21235,
        "autoPayEnabled": true
    },
    {
        "id": 11,
        "budderflyId": "KFC-40012",
        "address": "6401 SECURITY BOULEVARD",
        "city": "BALTIMORE",
        "state": "MD",
        "zipCode": 21235,
        "autoPayEnabled": false
    },
    {
        "id": 12,
        "budderflyId": "KFC-40013",
        "address": "6401 SECURITY BOULEVARD",
        "city": "BALTIMORE",
        "state": "MD",
        "zipCode": 21235,
        "autoPayEnabled": true
    },
    {
        "id": 13,
        "budderflyId": "KFC-40014",
        "address": "6401 SECURITY BOULEVARD",
        "city": "BALTIMORE",
        "state": "MD",
        "zipCode": 21235,
        "autoPayEnabled": true
    },
    {
        "id": 14,
        "budderflyId": "KFC-40015",
        "address": "6401 SECURITY BOULEVARD",
        "city": "BALTIMORE",
        "state": "MD",
        "zipCode": 21235,
        "autoPayEnabled": false
    },
    {
        "id": 15,
        "budderflyId": "KFC-40016",
        "address": "6401 SECURITY BOULEVARD",
        "city": "BALTIMORE",
        "state": "MD",
        "zipCode": 21235,
        "autoPayEnabled": true
    },
    {
        "id": 16,
        "budderflyId": "KFC-40017",
        "address": "6401 SECURITY BOULEVARD",
        "city": "BALTIMORE",
        "state": "MD",
        "zipCode": 21235,
        "autoPayEnabled": false
    },
    {
        "id": 17,
        "budderflyId": "KFC-40018",
        "address": "6401 SECURITY BOULEVARD",
        "city": "BALTIMORE",
        "state": "MD",
        "zipCode": 21235,
        "autoPayEnabled": true
    },
    {
        "id": 18,
        "budderflyId": "KFC-40019",
        "address": "6401 SECURITY BOULEVARD",
        "city": "BALTIMORE",
        "state": "MD",
        "zipCode": 21235,
        "autoPayEnabled": true
    },
    {
        "id": 19,
        "budderflyId": "KFC-40020",
        "address": "6401 SECURITY BOULEVARD",
        "city": "BALTIMORE",
        "state": "MD",
        "zipCode": 21235,
        "autoPayEnabled": false
    },
    {
        "id": 20,
        "budderflyId": "KFC-40021",
        "address": "6401 SECURITY BOULEVARD",
        "city": "BALTIMORE",
        "state": "MD",
        "zipCode": 21235,
        "autoPayEnabled": true
    },
    {
        "id": 21,
        "budderflyId": "KFC-40022",
        "address": "6401 SECURITY BOULEVARD",
        "city": "BALTIMORE",
        "state": "MD",
        "zipCode": 21235,
        "autoPayEnabled": false
    },
    {
        "id": 22,
        "budderflyId": "KFC-40023",
        "address": "6401 SECURITY BOULEVARD",
        "city": "BALTIMORE",
        "state": "MD",
        "zipCode": 21235,
        "autoPayEnabled": true
    },
    {
        "id": 23,
        "budderflyId": "KFC-40024",
        "address": "6401 SECURITY BOULEVARD",
        "city": "BALTIMORE",
        "state": "MD",
        "zipCode": 21235,
        "autoPayEnabled": true
    },
    {
        "id": 24,
        "budderflyId": "KFC-40025",
        "address": "6401 SECURITY BOULEVARD",
        "city": "BALTIMORE",
        "state": "MD",
        "zipCode": 21235,
        "autoPayEnabled": false
    }
]
